CSS (TIANHE)            
1 48274U 21035A   24003.01183442  .00032831  00000+0  33016-3 0  9990
2 48274  41.4717  18.3069 0006663 132.5552 227.5851 15.64721502153082
